{"type":"FeatureCollection","crs":{"type":"name","properties":{"name":"EPSG:4326"}},"features":[{"type":"Feature","geometry":{"type":"Point","coordinates":[-121.536679896772,37.0001713570889]},"properties":{"CECPlantID":"G0229","PlantName":"Gilroy Cogen Plant","Retired_Plant":0,"County":"Santa Clara","Capacity_Latest":123.4,"PriEnergySource":"NG"}},{"type":"Feature","geometry":{"type":"Point","coordinates":[-121.536194378587,36.9991556700331]},"properties":{"CECPlantID":"G0822","PlantName":"Gilroy Peaker","Retired_Plant":0,"County":"Santa Clara","Capacity_Latest":141.89999999999998,"PriEnergySource":"NG"}},{"type":"Feature","geometry":{"type":"Point","coordinates":[-122.247758706072,38.0363363063349]},"properties":{"CECPlantID":"S0980","PlantName":"DG - P66 Rodeo Refinery Solar","Retired_Plant":0,"County":"Contra Costa","Capacity_Latest":30.24,"PriEnergySource":"SUN"}},{"type":"Feature","geometry":{"type":"Point","coordinates":[-122.228630141139,37.5442526578827]},"properties":{"CECPlantID":"B0218","PlantName":"Silicon Valley Clean Water","Retired_Plant":0,"County":"San Mateo","Capacity_Latest":1.04,"PriEnergySource":"BAT"}},{"type":"Feature","geometry":{"type":"Point","coordinates":[-122.228262280123,37.5445895409374]},"properties":{"CECPlantID":"E0324","PlantName":"Silicon Valley Clean Water","Retired_Plant":0,"County":"San Mateo","Capacity_Latest":1.2,"PriEnergySource":"OBG"}},{"type":"Feature","geometry":{"type":"Point","coordinates":[-122.14803344211,37.4122896835616]},"properties":{"CECPlantID":"S0945","PlantName":"DG Palo Alto","Retired_Plant":0,"County":"Santa Clara","Capacity_Latest":1.3,"PriEnergySource":"SUN"}},{"type":"Feature","geometry":{"type":"Point","coordinates":[-121.895347309884,37.214364825623]},"properties":{"CECPlantID":"E0120","PlantName":"Guadalupe Power Plant (Retired 2013)","Retired_Plant":1,"County":"Santa Clara","Capacity_Latest":0,"PriEnergySource":"LFG"}},{"type":"Feature","geometry":{"type":"Point","coordinates":[-121.746005055876,37.220763765713]},"properties":{"CECPlantID":"G0794","PlantName":"Metcalf Energy Center","Retired_Plant":0,"County":"Santa Clara","Capacity_Latest":565.8,"PriEnergySource":"NG"}},{"type":"Feature","geometry":{"type":"Point","coordinates":[-121.635395724102,37.1490712332587]},"properties":{"CECPlantID":"S9041","PlantName":"Unified School District Morgan Hill","Retired_Plant":0,"County":"Santa Clara","Capacity_Latest":1,"PriEnergySource":"SUN"}},{"type":"Feature","geometry":{"type":"Point","coordinates":[-122.124751396095,37.3631471130646]},"properties":{"CECPlantID":"S9135","PlantName":"Foothill - De Anza Community College District","Retired_Plant":0,"County":"Santa Clara","Capacity_Latest":1.6,"PriEnergySource":"SUN"}},{"type":"Feature","geometry":{"type":"Point","coordinates":[-122.130301794993,37.3636967087156]},"properties":{"CECPlantID":"S9136","PlantName":"Foothill College - Pv Capstone","Retired_Plant":0,"County":"Santa Clara","Capacity_Latest":1.7,"PriEnergySource":"SUN"}},{"type":"Feature","geometry":{"type":"Point","coordinates":[-122.175787432272,37.4299408520672]},"properties":{"CECPlantID":"G0080","PlantName":"Cardinal Cogen - Retired 3/31/2015","Retired_Plant":1,"County":"Santa Clara","Capacity_Latest":0,"PriEnergySource":"NG"}},{"type":"Feature","geometry":{"type":"Point","coordinates":[-121.943027178584,37.4340837750631]},"properties":{"CECPlantID":"G1047","PlantName":"San Jose-Santa Clara Regional Wastewater Facility","Retired_Plant":0,"County":"Santa Clara","Capacity_Latest":14,"PriEnergySource":"NG"}},{"type":"Feature","geometry":{"type":"Point","coordinates":[-122.084055697607,37.4224455389935]},"properties":{"CECPlantID":"S9005","PlantName":"Google Inc.","Retired_Plant":0,"County":"Santa Clara","Capacity_Latest":1,"PriEnergySource":"SUN"}},{"type":"Feature","geometry":{"type":"Point","coordinates":[-122.084490478561,37.4214531818784]},"properties":{"CECPlantID":"S9031","PlantName":"Google Inc.","Retired_Plant":0,"County":"Santa Clara","Capacity_Latest":1,"PriEnergySource":"SUN"}},{"type":"Feature","geometry":{"type":"Point","coordinates":[-122.0128413742,37.2642998626011]},"properties":{"CECPlantID":"S9058","PlantName":"West Valley Mission Community College","Retired_Plant":0,"County":"Santa Clara","Capacity_Latest":1,"PriEnergySource":"SUN"}},{"type":"Feature","geometry":{"type":"Point","coordinates":[-122.026122586036,37.4151401425133]},"properties":{"CECPlantID":"S9069","PlantName":"Network Appliance/Chevron Energy Solutions","Retired_Plant":0,"County":"Santa Clara","Capacity_Latest":1,"PriEnergySource":"SUN"}},{"type":"Feature","geometry":{"type":"Point","coordinates":[-122.004485890828,37.3800253390696]},"properties":{"CECPlantID":"S9075","PlantName":"Applied Materials Inc.","Retired_Plant":0,"County":"Santa Clara","Capacity_Latest":1,"PriEnergySource":"SUN"}},{"type":"Feature","geometry":{"type":"Point","coordinates":[-121.980700213741,37.4113755494367]},"properties":{"CECPlantID":"S9081","PlantName":"Ohlone Community College District","Retired_Plant":0,"County":"Santa Clara","Capacity_Latest":1,"PriEnergySource":"SUN"}},{"type":"Feature","geometry":{"type":"Point","coordinates":[-122.026168350135,37.4159583455795]},"properties":{"CECPlantID":"S9128","PlantName":"Network Appliance","Retired_Plant":0,"County":"Santa Clara","Capacity_Latest":1.4,"PriEnergySource":"SUN"}},{"type":"Feature","geometry":{"type":"Point","coordinates":[-122.034934111207,37.4226122975185]},"properties":{"CECPlantID":"S9134","PlantName":"City of Sunnyvale Wastewater Treatment Plant","Retired_Plant":0,"County":"Santa Clara","Capacity_Latest":1.6,"PriEnergySource":"SUN"}},{"type":"Feature","geometry":{"type":"Point","coordinates":[-121.999215754764,37.3865757780032]},"properties":{"CECPlantID":"S9149","PlantName":"Advanced Micro Decives","Retired_Plant":0,"County":"Santa Clara","Capacity_Latest":3,"PriEnergySource":"SUN"}},{"type":"Feature","geometry":{"type":"Point","coordinates":[-122.005560515706,37.3774844487766]},"properties":{"CECPlantID":"S9151","PlantName":"Spansion LLC","Retired_Plant":0,"County":"Santa Clara","Capacity_Latest":3,"PriEnergySource":"SUN"}},{"type":"Feature","geometry":{"type":"Point","coordinates":[-122.015094902744,37.4184854435853]},"properties":{"CECPlantID":"E0181","PlantName":"Sunnyvale Water Pollution Control Plant","Retired_Plant":0,"County":"Santa Clara","Capacity_Latest":1.6,"PriEnergySource":"LFG"}},{"type":"Feature","geometry":{"type":"Point","coordinates":[-121.970551324466,37.4137083823601]},"properties":{"CECPlantID":"E0141","PlantName":"Santa Clara - Retired Dec 2005","Retired_Plant":1,"County":"Santa Clara","Capacity_Latest":0,"PriEnergySource":"LFG"}},{"type":"Feature","geometry":{"type":"Point","coordinates":[-121.951259839898,37.434674289525]},"properties":{"CECPlantID":"E0303","PlantName":"Zero Waste to Energy","Retired_Plant":0,"County":"Santa Clara","Capacity_Latest":1.6,"PriEnergySource":"LFG"}},{"type":"Feature","geometry":{"type":"Point","coordinates":[-121.944254322944,37.3642601610153]},"properties":{"CECPlantID":"G0114","PlantName":"Santa Clara Cogen","Retired_Plant":0,"County":"Santa Clara","Capacity_Latest":7.8,"PriEnergySource":"NG"}},{"type":"Feature","geometry":{"type":"Point","coordinates":[-121.951011699389,37.3769638336193]},"properties":{"CECPlantID":"G0169","PlantName":"Donald Von Raesfeld Power Plant (DVR)","Retired_Plant":0,"County":"Santa Clara","Capacity_Latest":147,"PriEnergySource":"NG"}},{"type":"Feature","geometry":{"type":"Point","coordinates":[-121.968678140774,37.4011477344232]},"properties":{"CECPlantID":"G0228","PlantName":"Gianera","Retired_Plant":0,"County":"Santa Clara","Capacity_Latest":64.3,"PriEnergySource":"NG"}},{"type":"Feature","geometry":{"type":"Point","coordinates":[-121.944549881474,37.3685958773647]},"properties":{"CECPlantID":"G0144","PlantName":"Altivity Packaging - Santa Clara - Retired December 2017","Retired_Plant":1,"County":"Santa Clara","Capacity_Latest":0,"PriEnergySource":"NG"}},{"type":"Feature","geometry":{"type":"Point","coordinates":[-121.923794562072,37.3484024721149]},"properties":{"CECPlantID":"G0898","PlantName":"San Jose FMC","Retired_Plant":1,"County":"Santa Clara","Capacity_Latest":0,"PriEnergySource":"OIL"}},{"type":"Feature","geometry":{"type":"Point","coordinates":[-121.922547992748,37.3651085906331]},"properties":{"CECPlantID":"S9047","PlantName":"Airport Division City of San Jose","Retired_Plant":0,"County":"Santa Clara","Capacity_Latest":1,"PriEnergySource":"SUN"}},{"type":"Feature","geometry":{"type":"Point","coordinates":[-121.861631594232,37.3178628529123]},"properties":{"CECPlantID":"S9094","PlantName":"City of San Jose","Retired_Plant":0,"County":"Santa Clara","Capacity_Latest":1,"PriEnergySource":"SUN"}},{"type":"Feature","geometry":{"type":"Point","coordinates":[-121.921702603335,37.3804461190051]},"properties":{"CECPlantID":"S9095","PlantName":"City of Santa Clara","Retired_Plant":0,"County":"Santa Clara","Capacity_Latest":1,"PriEnergySource":"SUN"}},{"type":"Feature","geometry":{"type":"Point","coordinates":[-121.922554963533,37.3810647069973]},"properties":{"CECPlantID":"S9101","PlantName":"County of Santa Clara","Retired_Plant":0,"County":"Santa Clara","Capacity_Latest":1,"PriEnergySource":"SUN"}},{"type":"Feature","geometry":{"type":"Point","coordinates":[-121.921833898422,37.3810499110474]},"properties":{"CECPlantID":"S9103","PlantName":"County of Santa Clara","Retired_Plant":0,"County":"Santa Clara","Capacity_Latest":1.1,"PriEnergySource":"SUN"}},{"type":"Feature","geometry":{"type":"Point","coordinates":[-121.859157080249,37.3662353822418]},"properties":{"CECPlantID":"S9112","PlantName":"Independence HS","Retired_Plant":0,"County":"Santa Clara","Capacity_Latest":1.2,"PriEnergySource":"SUN"}},{"type":"Feature","geometry":{"type":"Point","coordinates":[-121.76593804812,37.3039249984992]},"properties":{"CECPlantID":"S9127","PlantName":"San Jose Evergreen Community College","Retired_Plant":0,"County":"Santa Clara","Capacity_Latest":1.4,"PriEnergySource":"SUN"}},{"type":"Feature","geometry":{"type":"Point","coordinates":[-121.915751923974,37.3674062773135]},"properties":{"CECPlantID":"S9172","PlantName":"Gridley Main Two","Retired_Plant":0,"County":"Santa Clara","Capacity_Latest":2.5,"PriEnergySource":"SUN"}},{"type":"Feature","geometry":{"type":"Point","coordinates":[-121.878331999801,37.3361129992935]},"properties":{"CECPlantID":"G0087","PlantName":"San Jose Cogeneration","Retired_Plant":0,"County":"Santa Clara","Capacity_Latest":7,"PriEnergySource":"NG"}},{"type":"Feature","geometry":{"type":"Point","coordinates":[-121.927063359588,37.4111528592467]},"properties":{"CECPlantID":"G0221","PlantName":"Agnews Power Plant","Retired_Plant":0,"County":"Santa Clara","Capacity_Latest":30.5,"PriEnergySource":"NG"}},{"type":"Feature","geometry":{"type":"Point","coordinates":[-121.889484000566,37.3277737517857]},"properties":{"CECPlantID":"G0121","PlantName":"San Jose Convention Center (Closed 2001)","Retired_Plant":1,"County":"Santa Clara","Capacity_Latest":0,"PriEnergySource":"NG"}},{"type":"Feature","geometry":{"type":"Point","coordinates":[-121.93216802794,37.4252055790818]},"properties":{"CECPlantID":"G0866","PlantName":"Los Esteros Critical Energy Facility","Retired_Plant":0,"County":"Santa Clara","Capacity_Latest":332,"PriEnergySource":"NG"}},{"type":"Feature","geometry":{"type":"Point","coordinates":[-122.392781353757,37.6233280946182]},"properties":{"CECPlantID":"G0636","PlantName":"United Cogen Inc (SFO) - Retired 3/31/2012","Retired_Plant":1,"County":"San Mateo","Capacity_Latest":0,"PriEnergySource":"NG"}},{"type":"Feature","geometry":{"type":"Point","coordinates":[-122.406035054148,37.5040124437543]},"properties":{"CECPlantID":"E0218","PlantName":"Ameresco Half Moon Bay (Ox Mountain Landfill)","Retired_Plant":0,"County":"San Mateo","Capacity_Latest":11.459999999999999,"PriEnergySource":"LFG"}},{"type":"Feature","geometry":{"type":"Point","coordinates":[-122.174581213378,37.4945510165964]},"properties":{"CECPlantID":"E0123","PlantName":"Marsh Road Power Plant (Retired 2013)","Retired_Plant":1,"County":"San Mateo","Capacity_Latest":0,"PriEnergySource":"LFG"}},{"type":"Feature","geometry":{"type":"Point","coordinates":[-122.172902075681,37.4551871424021]},"properties":{"CECPlantID":"G0515","PlantName":"SRI International Cogen Project","Retired_Plant":0,"County":"San Mateo","Capacity_Latest":6,"PriEnergySource":"NG"}},{"type":"Feature","geometry":{"type":"Point","coordinates":[-122.109808574286,37.4384033425026]},"properties":{"CECPlantID":"G1034","PlantName":"COBUG - City of Palo Alto Backup Generator","Retired_Plant":1,"County":"Santa Clara","Capacity_Latest":0,"PriEnergySource":"NG"}},{"type":"Feature","geometry":{"type":"Point","coordinates":[-122.009466312539,37.592175011713]},"properties":{"CECPlantID":"S9104","PlantName":"JATCO","Retired_Plant":0,"County":"Alameda","Capacity_Latest":1.1,"PriEnergySource":"SUN"}},{"type":"Feature","geometry":{"type":"Point","coordinates":[-121.962649050516,37.504672072666]},"properties":{"CECPlantID":"S9121","PlantName":"Alameda Water District","Retired_Plant":0,"County":"Alameda","Capacity_Latest":1.3,"PriEnergySource":"SUN"}},{"type":"Feature","geometry":{"type":"Point","coordinates":[-122.103373125603,37.4498332259299]},"properties":{"CECPlantID":"E0146","PlantName":"Byxbee Park Sanitary Landill - Retired December 2004","Retired_Plant":1,"County":"Santa Clara","Capacity_Latest":0,"PriEnergySource":"OGW"}},{"type":"Feature","geometry":{"type":"Point","coordinates":[-121.935764950849,37.4551208453758]},"properties":{"CECPlantID":"E0179","PlantName":"Newby Island I","Retired_Plant":1,"County":"Santa Clara","Capacity_Latest":0,"PriEnergySource":"LFG"}},{"type":"Feature","geometry":{"type":"Point","coordinates":[-121.932376190296,37.4547676175881]},"properties":{"CECPlantID":"E0122","PlantName":"Newby Island II (Retired 2010)","Retired_Plant":1,"County":"Santa Clara","Capacity_Latest":0,"PriEnergySource":"LFG"}},{"type":"Feature","geometry":{"type":"Point","coordinates":[-122.381928874476,37.7566484074338]},"properties":{"CECPlantID":"G0462","PlantName":"Potrero Generating Station - Retired 2/28/2011","Retired_Plant":1,"County":"San Francisco","Capacity_Latest":0,"PriEnergySource":"NG"}},{"type":"Feature","geometry":{"type":"Point","coordinates":[-122.48349970598,37.7508926355507]},"properties":{"CECPlantID":"S0123","PlantName":"Sunset Reservoir North Basin Solar","Retired_Plant":0,"County":"San Francisco","Capacity_Latest":4.5,"PriEnergySource":"SUN"}},{"type":"Feature","geometry":{"type":"Point","coordinates":[-122.396312378628,37.7911741272304]},"properties":{"CECPlantID":"S9064","PlantName":"Fremont Group  50 Beale/DG Cogen Partners LLC","Retired_Plant":0,"County":"San Francisco","Capacity_Latest":1,"PriEnergySource":"SUN"}},{"type":"Feature","geometry":{"type":"Point","coordinates":[-122.400800338084,37.7893215667498]},"properties":{"CECPlantID":"S9068","PlantName":"Market & Second Inc/Real Energy","Retired_Plant":0,"County":"San Francisco","Capacity_Latest":1,"PriEnergySource":"SUN"}},{"type":"Feature","geometry":{"type":"Point","coordinates":[-122.396614222706,37.7914509572311]},"properties":{"CECPlantID":"S9113","PlantName":"Fremont Group Inc.  50 Beale/DG Cogen Partners LLC","Retired_Plant":0,"County":"San Francisco","Capacity_Latest":1.2,"PriEnergySource":"SUN"}},{"type":"Feature","geometry":{"type":"Point","coordinates":[-122.477056780319,37.7275358881007]},"properties":{"CECPlantID":"S9119","PlantName":"San Francisco State University","Retired_Plant":0,"County":"San Francisco","Capacity_Latest":1.2,"PriEnergySource":"SUN"}},{"type":"Feature","geometry":{"type":"Point","coordinates":[-122.394269353027,37.7972448488798]},"properties":{"CECPlantID":"S9131","PlantName":"Equity Office Property","Retired_Plant":0,"County":"San Francisco","Capacity_Latest":1.5,"PriEnergySource":"SUN"}},{"type":"Feature","geometry":{"type":"Point","coordinates":[-122.450469546027,37.7765790080725]},"properties":{"CECPlantID":"S9138","PlantName":"University of San Francisco","Retired_Plant":0,"County":"San Francisco","Capacity_Latest":2,"PriEnergySource":"SUN"}},{"type":"Feature","geometry":{"type":"Point","coordinates":[-122.39182766324,37.7418010774866]},"properties":{"CECPlantID":"S9140","PlantName":"Southeast Wastwater Treatment Plant/CCSF","Retired_Plant":0,"County":"San Francisco","Capacity_Latest":2,"PriEnergySource":"SUN"}},{"type":"Feature","geometry":{"type":"Point","coordinates":[-122.392958182146,37.7395317752169]},"properties":{"CECPlantID":"E0110","PlantName":"Southeast Digester Gas Cogen Plant","Retired_Plant":0,"County":"San Francisco","Capacity_Latest":2.1,"PriEnergySource":"OBG"}},{"type":"Feature","geometry":{"type":"Point","coordinates":[-122.476027224698,37.7234824348424]},"properties":{"CECPlantID":"G0127","PlantName":"SF Fuel Cell Station","Retired_Plant":0,"County":"San Francisco","Capacity_Latest":1.6,"PriEnergySource":"NG"}},{"type":"Feature","geometry":{"type":"Point","coordinates":[-122.37578313832,37.7373087052848]},"properties":{"CECPlantID":"G0272","PlantName":"Hunters Point (Closed May 2006)","Retired_Plant":1,"County":"San Francisco","Capacity_Latest":0,"PriEnergySource":"NG"}},{"type":"Feature","geometry":{"type":"Point","coordinates":[-122.451713581215,37.7765973169832]},"properties":{"CECPlantID":"G0641","PlantName":"Univ of San Francisco Cogen","Retired_Plant":0,"County":"San Francisco","Capacity_Latest":1.5,"PriEnergySource":"NG"}},{"type":"Feature","geometry":{"type":"Point","coordinates":[-122.133733767172,37.6347394333196]},"properties":{"CECPlantID":"G0935","PlantName":"Russell City Energy Center","Retired_Plant":0,"County":"Alameda","Capacity_Latest":640,"PriEnergySource":"NG"}},{"type":"Feature","geometry":{"type":"Point","coordinates":[-122.300535844833,37.8045493853349]},"properties":{"CECPlantID":"S9030","PlantName":"Port of Oakland","Retired_Plant":0,"County":"Alameda","Capacity_Latest":1,"PriEnergySource":"SUN"}},{"type":"Feature","geometry":{"type":"Point","coordinates":[-122.161136994284,37.7908910123836]},"properties":{"CECPlantID":"S9043","PlantName":"Peralta Community College Dist","Retired_Plant":0,"County":"Alameda","Capacity_Latest":1,"PriEnergySource":"SUN"}},{"type":"Feature","geometry":{"type":"Point","coordinates":[-122.150423871554,37.7119860075785]},"properties":{"CECPlantID":"S9066","PlantName":"Ghiradelli Chocolate","Retired_Plant":0,"County":"Alameda","Capacity_Latest":1,"PriEnergySource":"SUN"}},{"type":"Feature","geometry":{"type":"Point","coordinates":[-122.153146547564,37.6649963204496]},"properties":{"CECPlantID":"S9133","PlantName":"Oro Loma Sanitary District","Retired_Plant":0,"County":"Alameda","Capacity_Latest":1.5,"PriEnergySource":"SUN"}},{"type":"Feature","geometry":{"type":"Point","coordinates":[-122.289353384315,37.7886941458397]},"properties":{"CECPlantID":"G0379","PlantName":"Alameda","Retired_Plant":0,"County":"Alameda","Capacity_Latest":49.9,"PriEnergySource":"NG"}},{"type":"Feature","geometry":{"type":"Point","coordinates":[-122.281900000095,37.796444000026]},"properties":{"CECPlantID":"G0406","PlantName":"Oakland Power Plant","Retired_Plant":0,"County":"Alameda","Capacity_Latest":223.5,"PriEnergySource":"JF"}},{"type":"Feature","geometry":{"type":"Point","coordinates":[-122.059515174692,37.6585358426912]},"properties":{"CECPlantID":"G1028","PlantName":"CSU East Bay Fuel Cell","Retired_Plant":0,"County":"Alameda","Capacity_Latest":1.4,"PriEnergySource":"NG"}},{"type":"Feature","geometry":{"type":"Point","coordinates":[-121.964765472949,37.7680802547905]},"properties":{"CECPlantID":"S9025","PlantName":"AT&T Services Inc.","Retired_Plant":0,"County":"Contra Costa","Capacity_Latest":1,"PriEnergySource":"SUN"}},{"type":"Feature","geometry":{"type":"Point","coordinates":[-121.964585452674,37.7659363726231]},"properties":{"CECPlantID":"S9073","PlantName":"AT&T San Ramon (PV)/AT&T Services Inc","Retired_Plant":0,"County":"Contra Costa","Capacity_Latest":1,"PriEnergySource":"SUN"}},{"type":"Feature","geometry":{"type":"Point","coordinates":[-121.798609707331,37.7130171392093]},"properties":{"CECPlantID":"S9039","PlantName":"Community College District Chabot Las Positas","Retired_Plant":0,"County":"Alameda","Capacity_Latest":1,"PriEnergySource":"SUN"}},{"type":"Feature","geometry":{"type":"Point","coordinates":[-121.889813270191,37.7127769395714]},"properties":{"CECPlantID":"S9083","PlantName":"Carl Zeiss Meditec Inc.","Retired_Plant":0,"County":"Alameda","Capacity_Latest":1,"PriEnergySource":"SUN"}},{"type":"Feature","geometry":{"type":"Point","coordinates":[-121.927090312109,37.7062922693178]},"properties":{"CECPlantID":"S9123","PlantName":"Chabot - Las Positas Community College","Retired_Plant":0,"County":"Alameda","Capacity_Latest":1.3,"PriEnergySource":"SUN"}},{"type":"Feature","geometry":{"type":"Point","coordinates":[-121.79494269568,37.7122175944074]},"properties":{"CECPlantID":"S9146","PlantName":"Chabot Las Positas Community College District","Retired_Plant":0,"County":"Alameda","Capacity_Latest":2.3,"PriEnergySource":"SUN"}},{"type":"Feature","geometry":{"type":"Point","coordinates":[-121.888213000482,37.7174230000808]},"properties":{"CECPlantID":"F0002","PlantName":"Santa Rita Jail Fuel Cell","Retired_Plant":0,"County":"Alameda","Capacity_Latest":1.4,"PriEnergySource":"NG"}},{"type":"Feature","geometry":{"type":"Point","coordinates":[-121.601872918965,37.7888287269689]},"properties":{"CECPlantID":"G1015","PlantName":"Mariposa Energy  LLC","Retired_Plant":0,"County":"Alameda","Capacity_Latest":200,"PriEnergySource":"NG"}},{"type":"Feature","geometry":{"type":"Point","coordinates":[-121.71551390285,37.7061188546471]},"properties":{"CECPlantID":"S0220","PlantName":"RE Mohican","Retired_Plant":0,"County":"Alameda","Capacity_Latest":1,"PriEnergySource":"SUN"}},{"type":"Feature","geometry":{"type":"Point","coordinates":[-121.717459845471,37.6915091062587]},"properties":{"CECPlantID":"S0619","PlantName":"Whitehorn Solar LLC","Retired_Plant":0,"County":"Alameda","Capacity_Latest":3.3,"PriEnergySource":"SUN"}},{"type":"Feature","geometry":{"type":"Point","coordinates":[-121.716639933227,37.7079065917181]},"properties":{"CECPlantID":"S9049","PlantName":"Health Plan Inc. Kaiser Foundation","Retired_Plant":0,"County":"Alameda","Capacity_Latest":1,"PriEnergySource":"SUN"}},{"type":"Feature","geometry":{"type":"Point","coordinates":[-121.728841541465,37.7545893198124]},"properties":{"CECPlantID":"E0071","PlantName":"Ameresco Vasco Road LLC","Retired_Plant":0,"County":"Alameda","Capacity_Latest":4.34,"PriEnergySource":"LFG"}},{"type":"Feature","geometry":{"type":"Point","coordinates":[-121.649865999768,37.7493080000996]},"properties":{"CECPlantID":"E0106","PlantName":"Altamont Gas Recovery","Retired_Plant":0,"County":"Alameda","Capacity_Latest":7,"PriEnergySource":"LFG"}},{"type":"Feature","geometry":{"type":"Point","coordinates":[-121.600563074067,37.7914478222883]},"properties":{"CECPlantID":"G0184","PlantName":"Byron Power Partners LP - Retired December 2010","Retired_Plant":1,"County":"Alameda","Capacity_Latest":0,"PriEnergySource":"NG"}},{"type":"Feature","geometry":{"type":"Point","coordinates":[-121.64940115125,37.7280496143153]},"properties":{"CECPlantID":"W0333","PlantName":"ALTAMONT-  01W035 - Retired 10/31/2015","Retired_Plant":1,"County":"Alameda","Capacity_Latest":0,"PriEnergySource":"WND"}},{"type":"Feature","geometry":{"type":"Point","coordinates":[-121.704365502956,37.9970817831776]},"properties":{"CECPlantID":"S0901","PlantName":"California PV Energy at ISD WWTP","Retired_Plant":0,"County":"Contra Costa","Capacity_Latest":1,"PriEnergySource":"SUN"}},{"type":"Feature","geometry":{"type":"Point","coordinates":[-121.723122490545,37.7888441681442]},"properties":{"CECPlantID":"W0394","PlantName":"Vasco Wind Energy Center","Retired_Plant":0,"County":"Contra Costa","Capacity_Latest":78.2,"PriEnergySource":"WND"}},{"type":"Feature","geometry":{"type":"Point","coordinates":[-121.617352490225,37.7618295845328]},"properties":{"CECPlantID":"W0423","PlantName":"Diablo Wind LLC","Retired_Plant":0,"County":"Alameda","Capacity_Latest":17.98,"PriEnergySource":"WND"}},{"type":"Feature","geometry":{"type":"Point","coordinates":[-121.658394619931,37.8086802325488]},"properties":{"CECPlantID":"W0426","PlantName":"Buena Vista Energy LLC","Retired_Plant":0,"County":"Contra Costa","Capacity_Latest":38,"PriEnergySource":"WND"}},{"type":"Feature","geometry":{"type":"Point","coordinates":[-121.640476361564,37.707872903235]},"properties":{"CECPlantID":"W0298","PlantName":"Seawest Industries  Inc San Jacinto - Retired 11/1/2015","Retired_Plant":1,"County":"Alameda","Capacity_Latest":0,"PriEnergySource":"WND"}},{"type":"Feature","geometry":{"type":"Point","coordinates":[-121.656446656878,37.7415110169552]},"properties":{"CECPlantID":"W0322","PlantName":"Altamont Pass Windplant -Retired 11/1/2015","Retired_Plant":1,"County":"Alameda","Capacity_Latest":0,"PriEnergySource":"WND"}},{"type":"Feature","geometry":{"type":"Point","coordinates":[-121.645900074065,37.7398018055747]},"properties":{"CECPlantID":"W0331","PlantName":"Santa Clara 85C - Decommissioned 7/1/2016","Retired_Plant":1,"County":"Alameda","Capacity_Latest":0,"PriEnergySource":"WND"}},{"type":"Feature","geometry":{"type":"Point","coordinates":[-121.652973877283,37.7322759334176]},"properties":{"CECPlantID":"W0336","PlantName":"Altamont Infrastructure Company - 01W144 - Retired 11/1/2015","Retired_Plant":1,"County":"Alameda","Capacity_Latest":0,"PriEnergySource":"WND"}},{"type":"Feature","geometry":{"type":"Point","coordinates":[-121.655468078974,37.743648883209]},"properties":{"CECPlantID":"W0337","PlantName":"ALTAMONT - 01W146A - Retired 10/31/2015","Retired_Plant":1,"County":"Alameda","Capacity_Latest":0,"PriEnergySource":"WND"}},{"type":"Feature","geometry":{"type":"Point","coordinates":[-121.686432709247,37.7569327110943]},"properties":{"CECPlantID":"W0340","PlantName":"ALTAMONT - 01W146D - Retired 11/1/2015","Retired_Plant":1,"County":"Alameda","Capacity_Latest":0,"PriEnergySource":"WND"}},{"type":"Feature","geometry":{"type":"Point","coordinates":[-121.579036381972,37.7672913297849]},"properties":{"CECPlantID":"W0346","PlantName":"Altamont Midway Ltd - Retired 4/1/2015","Retired_Plant":1,"County":"Alameda","Capacity_Latest":0,"PriEnergySource":"WND"}},{"type":"Feature","geometry":{"type":"Point","coordinates":[-121.691563435983,37.7391407512032]},"properties":{"CECPlantID":"W0347","PlantName":"ALTAMONT - 16W011 - Retired 10/31/2015","Retired_Plant":1,"County":"Alameda","Capacity_Latest":0,"PriEnergySource":"WND"}},{"type":"Feature","geometry":{"type":"Point","coordinates":[-121.690814935696,37.7810072558286]},"properties":{"CECPlantID":"W0348","PlantName":"Flowind 3-4 - Retired 10/31/2015","Retired_Plant":1,"County":"Alameda","Capacity_Latest":0,"PriEnergySource":"WND"}},{"type":"Feature","geometry":{"type":"Point","coordinates":[-121.601060820692,37.7093846892204]},"properties":{"CECPlantID":"W0352","PlantName":"Patterson Pass -Retired 11/1/2014","Retired_Plant":1,"County":"Alameda","Capacity_Latest":0,"PriEnergySource":"WND"}},{"type":"Feature","geometry":{"type":"Point","coordinates":[-121.611047514113,37.7518987471406]},"properties":{"CECPlantID":"W0353","PlantName":"Dyer Road - Retired 4/1/2015","Retired_Plant":1,"County":"Alameda","Capacity_Latest":0,"PriEnergySource":"WND"}},{"type":"Feature","geometry":{"type":"Point","coordinates":[-121.652573448744,37.7368124678347]},"properties":{"CECPlantID":"W0375","PlantName":"Difwind VII - Retired 11/1/2015","Retired_Plant":1,"County":"Alameda","Capacity_Latest":0,"PriEnergySource":"WND"}},{"type":"Feature","geometry":{"type":"Point","coordinates":[-121.643803680699,37.7394128426936]},"properties":{"CECPlantID":"W0377","PlantName":"DifWind IX - Retired 11/1/2015","Retired_Plant":1,"County":"Alameda","Capacity_Latest":0,"PriEnergySource":"WND"}},{"type":"Feature","geometry":{"type":"Point","coordinates":[-121.655547445831,37.7336119363451]},"properties":{"CECPlantID":"W0446","PlantName":"Windpower Partners 1992  L.P - Retired 11/1/2015","Retired_Plant":1,"County":"Alameda","Capacity_Latest":0,"PriEnergySource":"WND"}},{"type":"Feature","geometry":{"type":"Point","coordinates":[-121.615311155128,37.7723740465835]},"properties":{"CECPlantID":"W0461","PlantName":"Golden Hills","Retired_Plant":0,"County":"Alameda","Capacity_Latest":85.92,"PriEnergySource":"WND"}},{"type":"Feature","geometry":{"type":"Point","coordinates":[-121.631851780079,37.7672899469461]},"properties":{"CECPlantID":"W0468","PlantName":"Golden Hills North","Retired_Plant":0,"County":"Alameda","Capacity_Latest":46,"PriEnergySource":"WND"}},{"type":"Feature","geometry":{"type":"Point","coordinates":[-121.707072486931,37.778817679459]},"properties":{"CECPlantID":"W0453","PlantName":"Windpower Partners 1991  L.P. - Retired 11/1/2015","Retired_Plant":1,"County":"Alameda","Capacity_Latest":0,"PriEnergySource":"WND"}},{"type":"Feature","geometry":{"type":"Point","coordinates":[-121.67158399995,37.7393654996729]},"properties":{"CECPlantID":"W0482","PlantName":"Altamont Winds LLC","Retired_Plant":0,"County":"Alameda","Capacity_Latest":57.5,"PriEnergySource":"WND"}},{"type":"Feature","geometry":{"type":"Point","coordinates":[-121.77894259696,37.2394688890079]},"properties":{"CECPlantID":"B0191","PlantName":"Hummingbird Energy Storage","Retired_Plant":0,"County":"Santa Clara","Capacity_Latest":75,"PriEnergySource":"BAT"}},{"type":"Feature","geometry":{"type":"Point","coordinates":[-122.377896493909,37.9456227132747]},"properties":{"CECPlantID":"S0665","PlantName":"MCE Richmond Solar PV Project","Retired_Plant":0,"County":"Contra Costa","Capacity_Latest":10.5,"PriEnergySource":"SUN"}},{"type":"Feature","geometry":{"type":"Point","coordinates":[-122.385356849329,37.9311739565404]},"properties":{"CECPlantID":"S9065","PlantName":"General Chemical Corp/Chevron Energy Solutions","Retired_Plant":0,"County":"Contra Costa","Capacity_Latest":1,"PriEnergySource":"SUN"}},{"type":"Feature","geometry":{"type":"Point","coordinates":[-122.379649236686,37.9670033808977]},"properties":{"CECPlantID":"S9093","PlantName":"Wastewater District West County","Retired_Plant":0,"County":"Contra Costa","Capacity_Latest":1,"PriEnergySource":"SUN"}},{"type":"Feature","geometry":{"type":"Point","coordinates":[-122.491493451037,37.9554002016976]},"properties":{"CECPlantID":"S9130","PlantName":"Central Marin Sanitation Agency","Retired_Plant":0,"County":"Marin","Capacity_Latest":1.5,"PriEnergySource":"SUN"}},{"type":"Feature","geometry":{"type":"Point","coordinates":[-122.376486369377,37.9683955062451]},"properties":{"CECPlantID":"E0137","PlantName":"Nove Power Plant","Retired_Plant":0,"County":"Contra Costa","Capacity_Latest":3,"PriEnergySource":"LFG"}},{"type":"Feature","geometry":{"type":"Point","coordinates":[-122.374399836443,37.9461099195723]},"properties":{"CECPlantID":"S0646","PlantName":"Chevron 2 (Removed - see S0665)","Retired_Plant":0,"County":"Contra Costa","Capacity_Latest":0,"PriEnergySource":"SUN"}},{"type":"Feature","geometry":{"type":"Point","coordinates":[-122.426927048405,37.6193713018183]},"properties":{"CECPlantID":"S0973","PlantName":"DG Shelter Creek Solar","Retired_Plant":0,"County":"San Mateo","Capacity_Latest":1.97,"PriEnergySource":"SUN"}},{"type":"Feature","geometry":{"type":"Point","coordinates":[-122.390899999407,37.9418000000031]},"properties":{"CECPlantID":"G0104","PlantName":"Chevron Richmond Refinery Cogeneration","Retired_Plant":0,"County":"Contra Costa","Capacity_Latest":183.53,"PriEnergySource":"NG"}},{"type":"Feature","geometry":{"type":"Point","coordinates":[-122.374575216318,37.9448287984544]},"properties":{"CECPlantID":"S0647","PlantName":"Chevron 8.5 (Removed - see S0665)","Retired_Plant":0,"County":"Contra Costa","Capacity_Latest":0,"PriEnergySource":"SUN"}},{"type":"Feature","geometry":{"type":"Point","coordinates":[-122.123157431598,37.8943702537773]},"properties":{"CECPlantID":"S0662","PlantName":"BART Lafayette","Retired_Plant":0,"County":"Contra Costa","Capacity_Latest":1.01,"PriEnergySource":"SUN"}},{"type":"Feature","geometry":{"type":"Point","coordinates":[-122.379840667895,37.9345143902206]},"properties":{"CECPlantID":"S0664","PlantName":"2 MW MCE Richmond Solar PV Project (Removed - see S0665)","Retired_Plant":0,"County":"Contra Costa","Capacity_Latest":0,"PriEnergySource":"SUN"}},{"type":"Feature","geometry":{"type":"Point","coordinates":[-121.902162699893,38.0288401002622]},"properties":{"CECPlantID":"B0063","PlantName":"Black Diamond Energy Storage","Retired_Plant":0,"County":"Contra Costa","Capacity_Latest":200,"PriEnergySource":"BAT"}},{"type":"Feature","geometry":{"type":"Point","coordinates":[-122.29547508257,37.8260288654813]},"properties":{"CECPlantID":"E0036","PlantName":"EBMUD Wastewater Treatment Plant Power Generation Station","Retired_Plant":0,"County":"Alameda","Capacity_Latest":6.449999999999999,"PriEnergySource":"OBG"}},{"type":"Feature","geometry":{"type":"Point","coordinates":[-122.066462712201,37.8701307309153]},"properties":{"CECPlantID":"S0978","PlantName":"DG Walnut Creek Solar","Retired_Plant":0,"County":"Contra Costa","Capacity_Latest":1,"PriEnergySource":"SUN"}},{"type":"Feature","geometry":{"type":"Point","coordinates":[-122.296391714712,37.8260630524171]},"properties":{"CECPlantID":"E0242","PlantName":"EBMUD Wastewater Treatment Plant Digester Gas Turbine","Retired_Plant":0,"County":"Alameda","Capacity_Latest":4.6,"PriEnergySource":"OBG"}},{"type":"Feature","geometry":{"type":"Point","coordinates":[-121.887585177473,37.7181704341896]},"properties":{"CECPlantID":"B0015","PlantName":"Santa Rita Jail Fuel Cell (duplicate of F0002)","Retired_Plant":0,"County":"Alameda","Capacity_Latest":1.4,"PriEnergySource":"NG"}},{"type":"Feature","geometry":{"type":"Point","coordinates":[-122.2633911919,37.8702100394847]},"properties":{"CECPlantID":"G0405","PlantName":"PE Berkeley Inc","Retired_Plant":0,"County":"Alameda","Capacity_Latest":26.35,"PriEnergySource":"NG"}},{"type":"Feature","geometry":{"type":"Point","coordinates":[-122.029204147738,37.4083300797144]},"properties":{"CECPlantID":"G9905","PlantName":"Juniper Networks","Retired_Plant":0,"County":"Santa Clara","Capacity_Latest":1,"PriEnergySource":"NG"}},{"type":"Feature","geometry":{"type":"Point","coordinates":[-122.073730985582,37.9664983964093]},"properties":{"CECPlantID":"S9016","PlantName":"College District Contra Costa Community 1","Retired_Plant":0,"County":"Contra Costa","Capacity_Latest":1,"PriEnergySource":"SUN"}},{"type":"Feature","geometry":{"type":"Point","coordinates":[-122.070099848126,37.9672919847428]},"properties":{"CECPlantID":"S9117","PlantName":"Contra Costa Community College - DVC","Retired_Plant":0,"County":"Contra Costa","Capacity_Latest":1.2,"PriEnergySource":"SUN"}},{"type":"Feature","geometry":{"type":"Point","coordinates":[-121.871609546046,37.3564214125139]},"properties":{"CECPlantID":"G9904","PlantName":"Kellogg's USA Inc. Convenience Foods","Retired_Plant":0,"County":"Santa Clara","Capacity_Latest":1,"PriEnergySource":"NG"}},{"type":"Feature","geometry":{"type":"Point","coordinates":[-122.060533308301,37.9043589012057]},"properties":{"CECPlantID":"S9142","PlantName":"AT&T Services  Inc.","Retired_Plant":0,"County":"Contra Costa","Capacity_Latest":2.1,"PriEnergySource":"SUN"}},{"type":"Feature","geometry":{"type":"Point","coordinates":[-122.346541568275,37.9206102565305]},"properties":{"CECPlantID":"S0900","PlantName":"California Department of Public Health at Richmond","Retired_Plant":0,"County":"Contra Costa","Capacity_Latest":2.2,"PriEnergySource":"SUN"}},{"type":"Feature","geometry":{"type":"Point","coordinates":[-122.059737233167,37.9724738659372]},"properties":{"CECPlantID":"G0101","PlantName":"Chevron Concord Cogeneration (Retired 7/27/2010)","Retired_Plant":1,"County":"Contra Costa","Capacity_Latest":0,"PriEnergySource":"NG"}},{"type":"Feature","geometry":{"type":"Point","coordinates":[-121.748456209319,38.0023194323722]},"properties":{"CECPlantID":"S9170","PlantName":"Oakley Solar Project","Retired_Plant":0,"County":"Contra Costa","Capacity_Latest":1.5,"PriEnergySource":"SUN"}},{"type":"Feature","geometry":{"type":"Point","coordinates":[-122.565179788188,38.1255541430349]},"properties":{"CECPlantID":"S0528","PlantName":"Cottonwood Carport Solar","Retired_Plant":0,"County":"Marin","Capacity_Latest":1,"PriEnergySource":"SUN"}},{"type":"Feature","geometry":{"type":"Point","coordinates":[-122.564310300277,38.1608416699457]},"properties":{"CECPlantID":"E0304","PlantName":"Redwood Renewable Energy Facility","Retired_Plant":0,"County":"Marin","Capacity_Latest":3.92,"PriEnergySource":"LFG"}},{"type":"Feature","geometry":{"type":"Point","coordinates":[-122.215595238692,38.0571262654269]},"properties":{"CECPlantID":"G0161","PlantName":"Crockett Cogeneration Project","Retired_Plant":0,"County":"Contra Costa","Capacity_Latest":247.4,"PriEnergySource":"NG"}},{"type":"Feature","geometry":{"type":"Point","coordinates":[-122.219040141227,38.0572658941832]},"properties":{"CECPlantID":"G0509","PlantName":"C&H Sugar Plant","Retired_Plant":0,"County":"Contra Costa","Capacity_Latest":10,"PriEnergySource":"NG"}},{"type":"Feature","geometry":{"type":"Point","coordinates":[-122.236332475366,38.0195335137974]},"properties":{"CECPlantID":"G0630","PlantName":"Phillips 66 - Carbon Plant (retired 2/17/2025)","Retired_Plant":1,"County":"Contra Costa","Capacity_Latest":0,"PriEnergySource":"NG"}},{"type":"Feature","geometry":{"type":"Point","coordinates":[-122.255036819044,38.0437415764049]},"properties":{"CECPlantID":"G0632","PlantName":"Phillips 66 - San Francisco Refinery","Retired_Plant":0,"County":"Contra Costa","Capacity_Latest":51,"PriEnergySource":"NG"}},{"type":"Feature","geometry":{"type":"Point","coordinates":[-121.934385779861,38.0039694878044]},"properties":{"CECPlantID":"E0217","PlantName":"Ameresco Keller Canyon","Retired_Plant":0,"County":"Contra Costa","Capacity_Latest":3.84,"PriEnergySource":"LFG"}},{"type":"Feature","geometry":{"type":"Point","coordinates":[-121.987232279553,38.0435110022007]},"properties":{"CECPlantID":"C0012","PlantName":"Nichols Road Power Plant - Retired April 2012","Retired_Plant":1,"County":"Contra Costa","Capacity_Latest":0,"PriEnergySource":"PC"}},{"type":"Feature","geometry":{"type":"Point","coordinates":[-122.115144140764,38.0336940649276]},"properties":{"CECPlantID":"G0494","PlantName":"Rhodia - Martinez","Retired_Plant":0,"County":"Contra Costa","Capacity_Latest":4,"PriEnergySource":"WH"}},{"type":"Feature","geometry":{"type":"Point","coordinates":[-122.062175432612,38.0240412910427]},"properties":{"CECPlantID":"G0613","PlantName":"Marathon Bay Area Cogen (formerly Martinez Cogen Limited)","Retired_Plant":0,"County":"Contra Costa","Capacity_Latest":127.46,"PriEnergySource":"NG"}},{"type":"Feature","geometry":{"type":"Point","coordinates":[-122.112022907117,38.0152826656335]},"properties":{"CECPlantID":"G0755","PlantName":"Martinez Refinery","Retired_Plant":0,"County":"Contra Costa","Capacity_Latest":220,"PriEnergySource":"NG"}},{"type":"Feature","geometry":{"type":"Point","coordinates":[-121.79023186915,38.0146011253275]},"properties":{"CECPlantID":"G0914","PlantName":"Riverview Peaker","Retired_Plant":0,"County":"Contra Costa","Capacity_Latest":47.3,"PriEnergySource":"NG"}},{"type":"Feature","geometry":{"type":"Point","coordinates":[-121.758205444526,38.0168959508824]},"properties":{"CECPlantID":"G0950","PlantName":"Gateway Generating Station","Retired_Plant":0,"County":"Contra Costa","Capacity_Latest":613.0999999999999,"PriEnergySource":"NG"}},{"type":"Feature","geometry":{"type":"Point","coordinates":[-121.765083872569,38.0168212103689]},"properties":{"CECPlantID":"G1011","PlantName":"Marsh Landing Generating Station","Retired_Plant":0,"County":"Contra Costa","Capacity_Latest":828,"PriEnergySource":"NG"}},{"type":"Feature","geometry":{"type":"Point","coordinates":[-121.89410315794,38.0396260237597]},"properties":{"CECPlantID":"G0450","PlantName":"Pittsburg Generating Station (Retired 12/31/2016)","Retired_Plant":1,"County":"Contra Costa","Capacity_Latest":0,"PriEnergySource":"NG"}},{"type":"Feature","geometry":{"type":"Point","coordinates":[-121.863859323958,38.0195000003076]},"properties":{"CECPlantID":"S0343","PlantName":"Columbia Solar Energy LLC","Retired_Plant":0,"County":"Contra Costa","Capacity_Latest":19,"PriEnergySource":"SUN"}},{"type":"Feature","geometry":{"type":"Point","coordinates":[-121.859550142541,38.004553909372]},"properties":{"CECPlantID":"S9017","PlantName":"College District Contra Costa Community 2","Retired_Plant":0,"County":"Contra Costa","Capacity_Latest":1,"PriEnergySource":"SUN"}},{"type":"Feature","geometry":{"type":"Point","coordinates":[-121.862412377949,38.0043172661412]},"properties":{"CECPlantID":"S9118","PlantName":"Contra Costa Community College - Los Medanos","Retired_Plant":0,"County":"Contra Costa","Capacity_Latest":1.2,"PriEnergySource":"SUN"}},{"type":"Feature","geometry":{"type":"Point","coordinates":[-121.870129852243,38.0307673197889]},"properties":{"CECPlantID":"C0008","PlantName":"East Third Street Power Plant - Retired April 2012","Retired_Plant":1,"County":"Contra Costa","Capacity_Latest":0,"PriEnergySource":"PC"}},{"type":"Feature","geometry":{"type":"Point","coordinates":[-121.860220483993,38.0160102092835]},"properties":{"CECPlantID":"C0009","PlantName":"Loveridge Road Power Plant - Retired April 2012","Retired_Plant":1,"County":"Contra Costa","Capacity_Latest":0,"PriEnergySource":"PC"}},{"type":"Feature","geometry":{"type":"Point","coordinates":[-121.755959039458,38.0107431645295]},"properties":{"CECPlantID":"C0010","PlantName":"Wilbur East Power Plant - Retired April 2012","Retired_Plant":1,"County":"Contra Costa","Capacity_Latest":0,"PriEnergySource":"PC"}},{"type":"Feature","geometry":{"type":"Point","coordinates":[-121.780698917347,38.0116578317827]},"properties":{"CECPlantID":"C0011","PlantName":"Wilbur West Power Plant - Retired April 2012","Retired_Plant":1,"County":"Contra Costa","Capacity_Latest":0,"PriEnergySource":"PC"}},{"type":"Feature","geometry":{"type":"Point","coordinates":[-121.760225183028,38.0185318408713]},"properties":{"CECPlantID":"G0147","PlantName":"Contra Costa Power Plant - Retired May 2013","Retired_Plant":1,"County":"Contra Costa","Capacity_Latest":0,"PriEnergySource":"NG"}},{"type":"Feature","geometry":{"type":"Point","coordinates":[-121.851540652609,38.0239781355922]},"properties":{"CECPlantID":"G0177","PlantName":"Pittsburg (Closed April 1  2010)","Retired_Plant":1,"County":"Contra Costa","Capacity_Latest":0,"PriEnergySource":"NG"}},{"type":"Feature","geometry":{"type":"Point","coordinates":[-121.776363805953,38.0139336532939]},"properties":{"CECPlantID":"G0224","PlantName":"Gaylord Container Corp Antioch - Retired November 2002","Retired_Plant":1,"County":"Contra Costa","Capacity_Latest":0,"PriEnergySource":"NG"}},{"type":"Feature","geometry":{"type":"Point","coordinates":[-121.872665907526,38.0298897005281]},"properties":{"CECPlantID":"G0780","PlantName":"Los Medanos Energy Center","Retired_Plant":0,"County":"Contra Costa","Capacity_Latest":594,"PriEnergySource":"NG"}},{"type":"Feature","geometry":{"type":"Point","coordinates":[-121.844832729802,38.0173220705288]},"properties":{"CECPlantID":"G0783","PlantName":"Delta Energy Center","Retired_Plant":0,"County":"Contra Costa","Capacity_Latest":860.2,"PriEnergySource":"NG"}},{"type":"Feature","geometry":{"type":"Point","coordinates":[-121.755261411105,37.3004403059549]},"properties":{"CECPlantID":"B0003","PlantName":"Yerba Buena Battery","Retired_Plant":0,"County":"Santa Clara","Capacity_Latest":4.8,"PriEnergySource":"BAT"}},{"type":"Feature","geometry":{"type":"Point","coordinates":[-121.617328545077,37.8470139178141]},"properties":{"CECPlantID":"S0760","PlantName":"Byron Highway Solar (CAISO)","Retired_Plant":0,"County":"Contra Costa","Capacity_Latest":5,"PriEnergySource":"SUN"}},{"type":"Feature","geometry":{"type":"Point","coordinates":[-122.182057000414,37.4317119997679]},"properties":{"CECPlantID":"S0852","PlantName":"Stanford - Parking Structure 5","Retired_Plant":0,"County":"Santa Clara","Capacity_Latest":1.8,"PriEnergySource":"SUN"}}],"metadata":{"source":"https://services3.arcgis.com/bWPjFyq029ChCGur/arcgis/rest/services/Power_Plant/FeatureServer/0","agency":"California Energy Commission","retrieved":"2026-09-20T05:50:55.496Z","sourceUpdated":"2026-06-12T18:12:21.802Z","description":"Reported facilities and nameplate MW, not live generation or available grid capacity."}}